O3B MPOWER F1           
1 54755U 22174A   24273.30710424 -.00000031  00000+0  00000+0 0  9994
2 54755   0.0533 345.7936 0006509 194.5570 219.4691  5.00113525 34042
